[
    {
        "Altitude(m)": 624792.7998747383,
        "Argument of Periapsis(deg)": 0.0,
        "Eccentricity": 0.0,
        "Inclination(deg)": 60.0,
        "Latitude(deg)": -59.14717186013914,
        "Longitude(deg)": -120.9737086968023,
        "Mean Anomaly(deg)": 261.8182,
        "RAAN(deg)": 85.00000000000001,
        "Satellite Name": "Test1 390",
        "Satellite Number": 390,
        "Semi-Major Axis(m)": 6980739.136638005,
        "Time(s)": 0
    },
    {
        "Altitude(m)": 624842.1922621182,
        "Argument of Periapsis(deg)": 0.00010418945913296404,
        "Eccentricity": 0.0,
        "Inclination(deg)": 60.0,
        "Latitude(deg)": -59.2892567479508,
        "Longitude(deg)": -119.84420245013905,
        "Mean Anomaly(deg)": 262.43830614546187,
        "RAAN(deg)": 84.99957995086027,
        "Satellite Name": "Test1 390",
        "Satellite Number": 390,
        "Semi-Major Axis(m)": 6980739.136638005,
        "Time(s)": 10
    }
]